OBJECT_NAME,OBJECT_ID,EPOCH,MEAN_MOTION,ECCENTRICITY,INCLINATION,RA_OF_ASC_NODE,ARG_OF_PERICENTER,MEAN_ANOMALY,EPHEMERIS_TYPE,CLASSIFICATION_TYPE,NORAD_CAT_ID,ELEMENT_SET_NO,REV_AT_EPOCH,BSTAR,MEAN_MOTION_DOT,MEAN_MOTION_DDOT
HST,1990-037B,2026-07-02T17:22:47.381664,15.30934799,.00016255,28.4736,334.3758,336.7387,23.3136,0,U,20580,999,79095,.24931413E-3,.7907E-4,0
POLAR,1996-013A,2026-06-30T21:37:45.967872,1.29846086,.64841756,79.8715,226.8903,208.6086,90.7324,0,U,23802,999,14503,0,.2E-5,0
SWAS,1998-071A,2026-07-02T12:29:12.443424,15.09694194,.000837,69.8938,187.9752,244.7551,115.2746,0,U,25560,999,49958,.15954E-3,.2473E-4,0
CXO,1999-040B,2026-07-04T05:52:49.506816,0.37797064,.7810468,56.3727,116.2458,310.0498,0.5720,0,U,25867,999,1738,0,.765E-5,0
XMM-NEWTON,1999-066A,2026-06-30T07:31:49.282176,0.50127122,.46708159,64.4187,282.8185,64.6474,0.0796,0,U,25989,999,2307,0,.75E-6,0
TERRA,1999-068A,2026-07-02T20:20:06.525600,14.61115956,.00027628,97.9447,232.7721,147.9475,327.8787,0,U,25994,999,41189,.10519098E-3,.473E-5,0
CLUSTER II-FM7 (SAMBA),2000-041A,2026-07-02T18:10:50.311200,0.44834504,.90728696,149.8840,53.4423,270.8480,359.6360,0,U,26410,999,2037,0,.12787E-3,0
CLUSTER II-FM8 (TANGO),2000-045B,2026-06-30T22:42:15.480864,0.44420098,.90747877,150.1096,54.2616,271.4997,2.3331,0,U,26464,999,2037,0,.15784E-3,0
ODIN,2001-007A,2026-07-02T08:54:37.707264,15.82090808,.0005921,97.3774,225.3490,136.8623,223.3110,0,U,26702,999,39179,.12669E-2,.265335E-2,0
TIMED,2001-055B,2026-07-02T19:08:32.048160,14.95323974,.00018729,74.0661,203.5865,313.7173,46.3856,0,U,26998,999,33315,.10645452E-3,.1134E-4,0
CORIOLIS,2003-001A,2026-07-02T21:51:39.268224,14.19949084,.00142935,98.7127,190.5557,162.9872,197.1786,0,U,27640,999,21645,.7306909E-4,.112E-5,0
SORCE,2003-004A,2026-07-02T09:56:41.134272,15.03784070,.0017066,39.9888,174.7952,165.6393,194.4889,0,U,27651,999,27419,.23161E-3,.3096E-4,0
MOST,2003-031D,2026-07-02T21:50:02.475168,14.21325654,.0009359,98.7045,191.4161,200.8716,159.2080,0,U,27843,999,19294,.50397132E-4,.66E-6,0
SCISAT 1,2003-036A,2026-07-02T14:56:08.092032,14.81465996,.00079911,73.9295,140.6752,210.4938,149.5775,0,U,27858,999,23373,.10021217E-3,.749E-5,0
SWIFT,2004-047A,2026-07-02T21:21:51.309216,15.69884073,.00008761,20.5532,63.6365,172.9585,187.0874,0,U,28485,999,18933,.44504835E-3,.5706E-3,0
HINODE (SOLAR-B),2006-041A,2026-07-02T18:53:57.795936,14.68645022,.00162186,98.0543,199.7098,235.7614,124.2056,0,U,29479,999,5716,.15592011E-3,.859E-5,0
SHIJIAN-6 02A (SJ-6 02A),2006-046A,2026-07-03T15:32:28.187808,15.17137431,.000469,97.6347,225.8385,87.0417,273.1352,0,U,29505,999,7476,.41121268E-3,.8093E-4,0
SHIJIAN-6 02B (SJ-6 02B),2006-046B,2026-07-03T16:11:28.989312,15.01417545,.00148633,97.7148,213.6315,13.1508,347.0101,0,U,29506,999,7321,.1137039E-3,.1409E-4,0
FGRST (GLAST),2008-029A,2026-07-02T03:46:35.155776,15.24014089,.000839,25.5819,100.5283,140.8430,219.2716,0,U,33053,999,99812,.12692382E-3,.3505E-4,0
SDO,2010-005A,2026-07-02T06:00:38.579328,1.00270409,.0001496,34.6806,86.1151,53.7669,128.3250,0,U,36395,999,6021,0,-.81E-6,0
CRYOSAT 2,2010-013A,2026-07-02T19:05:13.085376,14.51895328,.00021975,92.0362,281.0959,96.2120,263.9338,0,U,36508,999,86034,.33827518E-4,.139E-5,0
X-SAT,2011-015C,2026-07-03T15:41:06.924768,14.25209721,.0012947,98.3519,160.8934,298.2142,61.7731,0,U,37389,999,79002,-.88977394E-4,-.251E-5,0
GCOM-W1 (SHIZUKU),2012-025A,2026-07-02T19:39:08.810208,14.57139347,.00015372,98.2022,124.1380,67.5581,313.1459,0,U,38337,999,75131,.13274216E-3,.553E-5,0
NUSTAR,2012-031A,2026-07-03T10:00:08.000064,15.08955677,.00080206,6.0257,272.4026,345.1275,302.6786,0,U,38358,999,130,.34233915E-3,.6434E-4,0
NEOSSAT,2013-009D,2026-07-02T17:59:24.428256,14.35832027,.00106512,98.4183,3.4125,194.0208,166.0684,0,U,39089,999,69897,.77844414E-4,.183E-5,0
BRITE-AUSTRIA,2013-009F,2026-07-02T17:46:16.587264,14.36548421,.00099688,98.4001,2.7917,186.9933,173.1116,0,U,39091,999,69928,.86788134E-4,.212E-5,0
IRIS,2013-033A,2026-07-02T12:26:38.419008,14.85915926,.0022948,97.9322,22.7472,268.9364,90.9222,0,U,39197,999,70265,.14096E-3,.1178E-4,0
HISAKI (SPRINT-A),2013-049A,2026-07-02T14:17:00.788064,13.55545850,.0136878,29.7180,141.6729,141.7696,219.2672,0,U,39253,999,63351,.25847E-4,.84E-6,0
CASSIOPE,2013-055A,2026-07-02T18:26:45.507264,15.26617871,.02866518,80.9130,47.7795,9.9997,350.6769,0,U,39265,999,67004,.46564876E-3,.43132E-3,-.377119E-6
STSAT-3,2013-066G,2026-07-03T16:36:47.801952,15.02841371,.00094384,97.6216,154.3152,352.7965,7.3123,0,U,39422,999,68668,.10905814E-3,.1402E-4,0
SWARM B,2013-067A,2026-07-03T08:51:35.983872,15.28653322,.00027844,87.7454,337.3996,79.8252,280.3311,0,U,39451,999,68571,.1440686E-3,.4046E-4,0
